[{"OBJECT_NAME":"STARLINK-2084","OBJECT_ID":"2021-005V","EPOCH":"2026-03-10T00:00:02.999808","MEAN_MOTION":15.1207585,"ECCENTRICITY":2.582e-5,"INCLINATION":53.0759,"RA_OF_ASC_NODE":60.1546,"ARG_OF_PERICENTER":161.2563,"MEAN_ANOMALY":166.4598,"EPHEMERIS_TYPE":0,"CLASSIFICATION_TYPE":"U","NORAD_CAT_ID":47368,"ELEMENT_SET_NO":999,"REV_AT_EPOCH":574,"BSTAR":0.004658,"MEAN_MOTION_DOT":0.00081703,"MEAN_MOTION_DDOT":0},{"OBJECT_NAME":"OBJECT A","OBJECT_ID":"2024-095A","EPOCH":"2026-03-09T22:38:35.638656","MEAN_MOTION":15.12064324,"ECCENTRICITY":0.0003947,"INCLINATION":97.539,"RA_OF_ASC_NODE":149.317,"ARG_OF_PERICENTER":111.635,"MEAN_ANOMALY":248.5301,"EPHEMERIS_TYPE":0,"CLASSIFICATION_TYPE":"U","NORAD_CAT_ID":59810,"ELEMENT_SET_NO":999,"REV_AT_EPOCH":9915,"BSTAR":0.00038280559,"MEAN_MOTION_DOT":6.522e-5,"MEAN_MOTION_DDOT":0}]
